NORAD_CAT_ID,OBJECT_NAME,OBJECT_TYPE,EPOCH,MEAN_MOTION,ECCENTRICITY,INCLINATION,RA_OF_ASC_NODE,ARG_OF_PERICENTER,MEAN_ANOMALY,BSTAR,MEAN_MOTION_DOT,MEAN_MOTION_DDOT,TLE_LINE0,TLE_LINE1,TLE_LINE2,SEMIMAJOR_AXIS,PERIOD,APOGEE,PERIGEE,DECAYED
51464.0,STARLINK-3189,PAYLOAD,2024-02-07 03:07:54,15.08848134,0.0001408,53.2161,97.892,95.9118,264.2035,0.00015311,2.15e-05,0.0,0 STARLINK-3189,1 51464U 22010J   24038.13049617  .00002150  00000-0  15311-3 0  9995,2 51464  53.2161  97.8920 0001408  95.9118 264.2035 15.08848134112302,6917.856,95.437,540.695,538.746,0.0
51464.0,STARLINK-3189,PAYLOAD,2024-02-07 11:04:50,15.08859969,0.0001437,53.2164,96.4067,98.8344,261.2811,0.00036178,5.478e-05,0.0,0 STARLINK-3189,1 51464U 22010J   24038.46169045  .00005478  00000-0  36178-3 0  9999,2 51464  53.2164  96.4067 0001437  98.8344 261.2811 15.08859969112405,6917.819,95.436,540.678,538.69,0.0
51464.0,STARLINK-3189,PAYLOAD,2024-02-07 20:37:08,15.08858921,0.0001054,53.217,94.6218,75.5445,284.5664,0.00022563,3.307e-05,0.0,0 STARLINK-3189,1 51464U 22010J   24038.85912647  .00003307  00000-0  22563-3 0  9998,2 51464  53.2170  94.6218 0001054  75.5445 284.5664 15.08858921112466,6917.823,95.436,540.417,538.958,0.0
51464.0,STARLINK-3189,PAYLOAD,2024-02-08 10:55:38,15.08831531,0.0001673,53.2159,91.9464,76.3783,283.7395,-0.00017847,-3.127e-05,0.0,0 STARLINK-3189,1 51464U 22010J   24039.45530285 -.00003127  00000-0 -17847-3 0  9990,2 51464  53.2159  91.9464 0001673  76.3783 283.7395 15.08831531112502,6917.906,95.438,540.929,538.614,0.0
51464.0,STARLINK-3189,PAYLOAD,2024-02-08 12:31:01,15.08838816,0.0001704,53.216,91.6489,76.8192,283.299,-1.3149e-05,-4.97e-06,0.0,0 STARLINK-3189,1 51464U 22010J   24039.52154097 -.00000497  00000-0 -13149-4 0  9990,2 51464  53.2160  91.6489 0001704  76.8192 283.2990 15.08838816112567,6917.884,95.438,540.928,538.57,0.0
51464.0,STARLINK-3189,PAYLOAD,2024-02-09 12:21:48,15.08851455,0.0001959,53.2158,87.1859,70.4805,289.6398,0.0010208,0.00016,0.0,0 STARLINK-3189,1 51464U 22010J   24040.51514460  .00016000  00000-0  10208-2 0  9991,2 51464  53.2158  87.1859 0001959  70.4805 289.6398 15.08851455112711,6917.845,95.437,541.066,538.355,0.0
51464.0,STARLINK-3189,PAYLOAD,2024-02-10 09:01:49,15.08844626,0.0001734,53.2162,83.3153,93.019,267.1,0.00051971,7.994e-05,0.0,0 STARLINK-3189,1 51464U 22010J   24041.37626586  .00007994  00000-0  51971-3 0  9994,2 51464  53.2162  83.3153 0001734  93.0190 267.1000 15.08844626112791,6917.866,95.437,540.931,538.532,0.0
51464.0,STARLINK-3189,PAYLOAD,2024-02-10 12:12:35,15.08847014,0.0002015,53.2167,82.7241,76.0727,284.049,0.00061834,9.568e-05,0.0,0 STARLINK-3189,1 51464U 22010J   24041.50874781  .00009568  00000-0  61834-3 0  9999,2 51464  53.2167  82.7241 0002015  76.0727 284.0490 15.08847014112860,6917.859,95.437,541.118,538.33,0.0
51464.0,STARLINK-3189,PAYLOAD,2024-02-11 08:52:36,15.08847997,0.0001869,53.2173,78.8539,102.0164,258.1038,0.0005263,8.1e-05,0.0,0 STARLINK-3189,1 51464U 22010J   24042.36986506  .00008100  00000-0  52630-3 0  9998,2 51464  53.2173  78.8539 0001869 102.0164 258.1038 15.08847997112943,6917.856,95.437,541.014,538.428,0.0
51464.0,STARLINK-3189,PAYLOAD,2024-02-12 08:43:23,15.08850537,0.0001912,53.2166,74.3969,91.2669,268.8542,0.00032096,4.825e-05,0.0,0 STARLINK-3189,1 51464U 22010J   24043.36346520  .00004825  00000-0  32096-3 0  9999,2 51464  53.2166  74.3969 0001912  91.2669 268.8542 15.08850537113090,6917.848,95.437,541.036,538.39,0.0
51464.0,STARLINK-3189,PAYLOAD,2024-02-13 11:44:57,15.08843386,0.0001684,53.2161,69.3439,91.894,268.2245,0.0001794,2.569e-05,0.0,0 STARLINK-3189,1 51464U 22010J   24044.48954948  .00002569  00000-0  17940-3 0  9996,2 51464  53.2161  69.3439 0001684  91.8940 268.2245 15.08843386113262,6917.87,95.437,540.9,538.57,0.0
51464.0,STARLINK-3189,PAYLOAD,2024-02-13 18:06:29,15.08839047,0.0001601,53.2154,68.1527,85.671,274.4465,0.00011018,1.466e-05,0.0,0 STARLINK-3189,1 51464U 22010J   24044.75451193  .00001466  00000-0  11018-3 0  9995,2 51464  53.2154  68.1527 0001601  85.6710 274.4465 15.08839047113356,6917.883,95.438,540.856,538.641,0.0
51464.0,STARLINK-3189,PAYLOAD,2024-02-14 05:14:11,15.08839896,0.0001624,53.2159,66.0746,91.6146,268.5032,8.1267e-05,1.006e-05,0.0,0 STARLINK-3189,1 51464U 22010J   24045.21819292  .00001006  00000-0  81267-4 0  9999,2 51464  53.2159  66.0746 0001624  91.6146 268.5032 15.08839896113374,6917.881,95.438,540.869,538.622,0.0
51464.0,STARLINK-3189,PAYLOAD,2024-02-14 11:35:43,15.0885,0.0001721,53.2161,64.884,95.125,264.9939,0.00031508,4.731e-05,0.0,0 STARLINK-3189,1 51464U 22010J   24045.48314729  .00004731  00000-0  31508-3 0  9993,2 51464  53.2161  64.8840 0001721  95.1250 264.9939 15.08850000113412,6917.85,95.437,540.905,538.524,0.0
51464.0,STARLINK-3189,PAYLOAD,2024-02-14 17:57:16,15.08841601,0.0001553,53.2155,63.6925,86.0269,274.09,0.00029532,4.415e-05,0.0,0 STARLINK-3189,1 51464U 22010J   24045.74811136  .00004415  00000-0  29532-3 0  9999,2 51464  53.2155  63.6925 0001553  86.0269 274.0900 15.08841601113459,6917.875,95.437,540.815,538.666,0.0
51464.0,STARLINK-3189,PAYLOAD,2024-02-15 11:26:31,15.08837228,0.000185,53.2174,60.4225,84.4441,275.6762,5.2567e-05,5.49e-06,0.0,0 STARLINK-3189,1 51464U 22010J   24046.47675679  .00000549  00000-0  52567-4 0  9999,2 51464  53.2174  60.4225 0001850  84.4441 275.6762 15.08837228113613,6917.889,95.438,541.034,538.474,0.0
51464.0,STARLINK-3189,PAYLOAD,2024-02-15 17:48:04,15.08833332,0.0001799,53.2175,59.2323,86.6232,273.4966,2.2359e-05,6.8e-07,0.0,0 STARLINK-3189,1 51464U 22010J   24046.74171985  .00000068  00000-0  22359-4 0  9992,2 51464  53.2175  59.2323 0001799  86.6232 273.4966 15.08833332113651,6917.901,95.438,541.01,538.521,0.0
51464.0,STARLINK-3189,PAYLOAD,2024-02-16 09:41:55,15.08845734,0.0001666,53.218,56.2602,91.3272,268.7911,8.1946e-05,1.017e-05,0.0,0 STARLINK-3189,1 51464U 22010J   24047.40411656  .00001017  00000-0  81946-4 0  9990,2 51464  53.2180  56.2602 0001666  91.3272 268.7911 15.08845734113751,6917.863,95.437,540.88,538.575,0.0
51464.0,STARLINK-3189,PAYLOAD,2024-02-17 00:00:24,15.0883633,0.0001901,53.2176,53.5868,79.2339,280.8867,0.00012499,1.701e-05,0.0,0 STARLINK-3189,1 51464U 22010J   24048.00028357  .00001701  00000-0  12499-3 0  9995,2 51464  53.2176  53.5868 0001901  79.2339 280.8867 15.08836330113792,6917.892,95.438,541.072,538.442,0.0
51464.0,STARLINK-3189,PAYLOAD,2024-02-17 07:57:19,15.0884427,0.0001634,53.2175,52.097,94.8134,265.3045,0.0001122,1.498e-05,0.0,0 STARLINK-3189,1 51464U 22010J   24048.33147926  .00001498  00000-0  11220-3 0  9999,2 51464  53.2175  52.0970 0001634  94.8134 265.3045 15.08844270113897,6917.867,95.437,540.863,538.602,0.0
51464.0,STARLINK-3189,PAYLOAD,2024-02-17 17:29:38,15.08846749,0.0001667,53.2177,50.3134,90.0961,270.0222,0.0001047,1.379e-05,0.0,0 STARLINK-3189,1 51464U 22010J   24048.72891766  .00001379  00000-0  10470-3 0  9994,2 51464  53.2177  50.3134 0001667  90.0961 270.0222 15.08846749113909,6917.86,95.437,540.878,538.572,0.0
51464.0,STARLINK-3189,PAYLOAD,2024-02-18 06:12:43,15.08851618,0.0001577,53.2192,47.9323,95.3449,264.7723,0.0001168,1.572e-05,0.0,0 STARLINK-3189,1 51464U 22010J   24049.25883436  .00001572  00000-0  11680-3 0  9997,2 51464  53.2192  47.9323 0001577  95.3449 264.7723 15.08851618114039,6917.845,95.437,540.801,538.619,0.0
51464.0,STARLINK-3189,PAYLOAD,2024-02-18 17:20:25,15.08846547,0.0001466,53.2185,45.8504,100.2936,259.8221,0.00011398,1.527e-05,0.0,0 STARLINK-3189,1 51464U 22010J   24049.72251635  .00001527  00000-0  11398-3 0  9995,2 51464  53.2185  45.8504 0001466 100.2936 259.8221 15.08846547114104,6917.86,95.437,540.74,538.711,0.0
51464.0,STARLINK-3189,PAYLOAD,2024-02-19 04:28:07,15.08845205,0.0001614,53.2185,43.7703,96.0927,264.0249,5.4165e-05,5.74e-06,0.0,0 STARLINK-3189,1 51464U 22010J   24050.18619813  .00000574  00000-0  54165-4 0  9994,2 51464  53.2185  43.7703 0001614  96.0927 264.0249 15.08845205114129,6917.864,95.437,540.846,538.613,0.0
51464.0,STARLINK-3189,PAYLOAD,2024-02-19 06:03:30,15.08846907,0.0001623,53.2189,43.4728,97.2208,262.8969,5.9439e-05,6.58e-06,0.0,0 STARLINK-3189,1 51464U 22010J   24050.25243665  .00000658  00000-0  59439-4 0  9992,2 51464  53.2189  43.4728 0001623  97.2208 262.8969 15.08846907114183,6917.859,95.437,540.847,538.602,0.0
51464.0,STARLINK-3189,PAYLOAD,2024-02-20 04:18:54,15.08837379,0.0001565,53.2185,39.3091,101.2163,258.9005,4.4277e-06,-2.18e-06,0.0,0 STARLINK-3189,1 51464U 22010J   24051.17980297 -.00000218  00000-0  44277-5 0  9991,2 51464  53.2185  39.3091 0001565 101.2163 258.9005 15.08837379114277,6917.888,95.438,540.836,538.671,0.0
51464.0,STARLINK-3189,PAYLOAD,2024-02-20 07:29:41,15.08843639,0.0001398,53.2184,38.7183,88.4197,271.6955,-3.0679e-05,-7.76e-06,0.0,0 STARLINK-3189,1 51464U 22010J   24051.31228112 -.00000776  00000-0 -30679-4 0  9998,2 51464  53.2184  38.7183 0001398  88.4197 271.6955 15.08843639114348,6917.869,95.437,540.701,538.767,0.0
51464.0,STARLINK-3189,PAYLOAD,2024-02-21 05:45:04,15.08847414,0.0001458,53.2185,34.5533,90.8134,269.3025,8.5456e-05,1.073e-05,0.0,0 STARLINK-3189,1 51464U 22010J   24052.23963583  .00001073  00000-0  85456-4 0  9990,2 51464  53.2185  34.5533 0001458  90.8134 269.3025 15.08847414114434,6917.858,95.437,540.731,538.714,0.0
51464.0,STARLINK-3189,PAYLOAD,2024-02-21 15:17:23,15.08840509,0.0001431,53.2181,32.7703,92.7218,267.3938,2.0493e-05,3.8e-07,0.0,0 STARLINK-3189,1 51464U 22010J   24052.63708112  .00000038  00000-0  20493-4 0  9999,2 51464  53.2181  32.7703 0001431  92.7218 267.3938 15.08840509114499,6917.879,95.438,540.734,538.754,0.0
51464.0,STARLINK-3189,PAYLOAD,2024-02-22 04:00:29,15.08833677,0.0001482,53.2198,30.3929,96.8717,263.2443,5.9708e-05,6.62e-06,0.0,0 STARLINK-3189,1 51464U 22010J   24053.16700757  .00000662  00000-0  59708-4 0  9999,2 51464  53.2198  30.3929 0001482  96.8717 263.2443 15.08833677114579,6917.9,95.438,540.79,538.739,0.0
